{
  "type": "FeatureCollection",
  "features": [
    {
      "type": "Feature",
      "properties": {
        "norad_id": 33791,
        "name": "COSMOS 2251 DEB",
        "group": "cosmos-2251-debris",
        "lat": -9.54825292410455,
        "lon": -135.01897934257573,
        "alt_km": 738.0220953608732,
        "timestamp": "2025-12-10T04:57:30.014409+00:00",
        "meta_object_name": "COSMOS 2251 DEB",
        "meta_object_id": "1993-036AG",
        "meta_epoch": "2025-12-09T15:31:10.280064",
        "meta_mean_motion": 14.43099089,
        "meta_eccentricity": 0.0030567,
        "meta_inclination": 74.175,
        "meta_ra_of_asc_node": 43.2771,
        "meta_arg_of_pericenter": 241.066,
        "meta_mean_anomaly": 281.1685,
        "meta_ephemeris_type": 0,
        "meta_classification_type": "U",
        "meta_norad_cat_id": 33791,
        "meta_element_set_no": 999,
        "meta_rev_at_epoch": 88007,
        "meta_bstar": 0.0012165,
        "meta_mean_motion_dot": 4.081e-05,
        "meta_mean_motion_ddot": 0,
        "tle_line1": "1 33791U 93036AG  25343.64664676  .00004081  00000+0  12165-2 0  9995",
        "tle_line2": "2 33791  74.1750  43.2771 0030567 241.0660 281.1685 14.43099089880074"
      },
      "geometry": {
        "type": "Point",
        "coordinates": [
          -135.01897934257573,
          -9.54825292410455
        ]
      }
    },
    {
      "type": "Feature",
      "properties": {
        "norad_id": 33792,
        "name": "COSMOS 2251 DEB",
        "group": "cosmos-2251-debris",
        "lat": 42.11473431856491,
        "lon": 4.52385170990335,
        "alt_km": 769.638307690534,
        "timestamp": "2025-12-10T04:57:30.014419+00:00",
        "meta_object_name": "COSMOS 2251 DEB",
        "meta_object_id": "1993-036AH",
        "meta_epoch": "2025-12-09T18:55:21.280800",
        "meta_mean_motion": 13.45816177,
        "meta_eccentricity": 0.0426949,
        "meta_inclination": 73.9008,
        "meta_ra_of_asc_node": 350.0573,
        "meta_arg_of_pericenter": 55.2592,
        "meta_mean_anomaly": 124.7208,
        "meta_ephemeris_type": 0,
        "meta_classification_type": "U",
        "meta_norad_cat_id": 33792,
        "meta_element_set_no": 999,
        "meta_rev_at_epoch": 82402,
        "meta_bstar": 0.0011019,
        "meta_mean_motion_dot": 1.122e-05,
        "meta_mean_motion_ddot": 0,
        "tle_line1": "1 33792U 93036AH  25343.78844075  .00001122  00000+0  11019-2 0  9994",
        "tle_line2": "2 33792  73.9008 350.0573 0426949  55.2592 124.7208 13.45816177824021"
      },
      "geometry": {
        "type": "Point",
        "coordinates": [
          4.52385170990335,
          42.11473431856491
        ]
      }
    },
    {
      "type": "Feature",
      "properties": {
        "norad_id": 33793,
        "name": "COSMOS 2251 DEB",
        "group": "cosmos-2251-debris",
        "lat": -31.954353282312688,
        "lon": -15.154847753835282,
        "alt_km": 806.4204990276457,
        "timestamp": "2025-12-10T04:57:30.014429+00:00",
        "meta_object_name": "COSMOS 2251 DEB",
        "meta_object_id": "1993-036AJ",
        "meta_epoch": "2025-12-09T17:56:19.610016",
        "meta_mean_motion": 14.27707259,
        "meta_eccentricity": 0.007841,
        "meta_inclination": 73.9806,
        "meta_ra_of_asc_node": 155.3559,
        "meta_arg_of_pericenter": 306.0454,
        "meta_mean_anomaly": 69.1941,
        "meta_ephemeris_type": 0,
        "meta_classification_type": "U",
        "meta_norad_cat_id": 33793,
        "meta_element_set_no": 999,
        "meta_rev_at_epoch": 87164,
        "meta_bstar": 0.0011102,
        "meta_mean_motion_dot": 2.804e-05,
        "meta_mean_motion_ddot": 0,
        "tle_line1": "1 33793U 93036AJ  25343.74744919  .00002804  00000+0  11102-2 0  9998",
        "tle_line2": "2 33793  73.9806 155.3559 0078410 306.0454  69.1941 14.27707259871645"
      },
      "geometry": {
        "type": "Point",
        "coordinates": [
          -15.154847753835282,
          -31.954353282312688
        ]
      }
    },
    {
      "type": "Feature",
      "properties": {
        "norad_id": 33795,
        "name": "COSMOS 2251 DEB",
        "group": "cosmos-2251-debris",
        "lat": 7.230180987317329,
        "lon": -100.15078937091327,
        "alt_km": 530.1152424481652,
        "timestamp": "2025-12-10T04:57:30.014439+00:00",
        "meta_object_name": "COSMOS 2251 DEB",
        "meta_object_id": "1993-036AL",
        "meta_epoch": "2025-12-09T20:40:41.374272",
        "meta_mean_motion": 15.05342973,
        "meta_eccentricity": 0.0031884,
        "meta_inclination": 74.0325,
        "meta_ra_of_asc_node": 82.6378,
        "meta_arg_of_pericenter": 167.2317,
        "meta_mean_anomaly": 296.2022,
        "meta_ephemeris_type": 0,
        "meta_classification_type": "U",
        "meta_norad_cat_id": 33795,
        "meta_element_set_no": 999,
        "meta_rev_at_epoch": 89978,
        "meta_bstar": 0.0022634,
        "meta_mean_motion_dot": 0.00032902,
        "meta_mean_motion_ddot": 0,
        "tle_line1": "1 33795U 93036AL  25343.86158998  .00032902  00000+0  22634-2 0  9993",
        "tle_line2": "2 33795  74.0325  82.6378 0031884 167.2317 296.2022 15.05342973899788"
      },
      "geometry": {
        "type": "Point",
        "coordinates": [
          -100.15078937091327,
          7.230180987317329
        ]
      }
    },
    {
      "type": "Feature",
      "properties": {
        "norad_id": 33797,
        "name": "COSMOS 2251 DEB",
        "group": "cosmos-2251-debris",
        "lat": 60.55252586437639,
        "lon": 70.21438112255262,
        "alt_km": 674.5170056448806,
        "timestamp": "2025-12-10T04:57:30.014450+00:00",
        "meta_object_name": "COSMOS 2251 DEB",
        "meta_object_id": "1993-036AN",
        "meta_epoch": "2025-12-09T14:06:21.258720",
        "meta_mean_motion": 14.5782952,
        "meta_eccentricity": 0.0060828,
        "meta_inclination": 74.0478,
        "meta_ra_of_asc_node": 40.9495,
        "meta_arg_of_pericenter": 129.7908,
        "meta_mean_anomaly": 289.2805,
        "meta_ephemeris_type": 0,
        "meta_classification_type": "U",
        "meta_norad_cat_id": 33797,
        "meta_element_set_no": 999,
        "meta_rev_at_epoch": 88939,
        "meta_bstar": 0.0007081,
        "meta_mean_motion_dot": 3.296e-05,
        "meta_mean_motion_ddot": 0,
        "tle_line1": "1 33797U 93036AN  25343.58774605  .00003296  00000+0  70810-3 0  9997",
        "tle_line2": "2 33797  74.0478  40.9495 0060828 129.7908 289.2805 14.57829520889396"
      },
      "geometry": {
        "type": "Point",
        "coordinates": [
          70.21438112255262,
          60.55252586437639
        ]
      }
    },
    {
      "type": "Feature",
      "properties": {
        "norad_id": 33798,
        "name": "COSMOS 2251 DEB",
        "group": "cosmos-2251-debris",
        "lat": 61.18040215008292,
        "lon": 171.99285568992133,
        "alt_km": 800.0316434984452,
        "timestamp": "2025-12-10T04:57:30.014460+00:00",
        "meta_object_name": "COSMOS 2251 DEB",
        "meta_object_id": "1993-036AP",
        "meta_epoch": "2025-12-09T21:03:11.388960",
        "meta_mean_motion": 14.44609265,
        "meta_eccentricity": 0.0092507,
        "meta_inclination": 74.0278,
        "meta_ra_of_asc_node": 141.237,
        "meta_arg_of_pericenter": 263.2251,
        "meta_mean_anomaly": 249.9154,
        "meta_ephemeris_type": 0,
        "meta_classification_type": "U",
        "meta_norad_cat_id": 33798,
        "meta_element_set_no": 999,
        "meta_rev_at_epoch": 88552,
        "meta_bstar": 0.00029207,
        "meta_mean_motion_dot": 1.036e-05,
        "meta_mean_motion_ddot": 0,
        "tle_line1": "1 33798U 93036AP  25343.87721515  .00001036  00000+0  29207-3 0  9996",
        "tle_line2": "2 33798  74.0278 141.2370 0092507 263.2251 249.9154 14.44609265885525"
      },
      "geometry": {
        "type": "Point",
        "coordinates": [
          171.99285568992133,
          61.18040215008292
        ]
      }
    },
    {
      "type": "Feature",
      "properties": {
        "norad_id": 33799,
        "name": "COSMOS 2251 DEB",
        "group": "cosmos-2251-debris",
        "lat": -9.078702094506841,
        "lon": 84.15280409772633,
        "alt_km": 650.8391989976826,
        "timestamp": "2025-12-10T04:57:30.014470+00:00",
        "meta_object_name": "COSMOS 2251 DEB",
        "meta_object_id": "1993-036AQ",
        "meta_epoch": "2025-12-09T18:21:49.722048",
        "meta_mean_motion": 14.79505613,
        "meta_eccentricity": 0.0023693,
        "meta_inclination": 74.032,
        "meta_ra_of_asc_node": 87.6439,
        "meta_arg_of_pericenter": 159.342,
        "meta_mean_anomaly": 1.1626,
        "meta_ephemeris_type": 0,
        "meta_classification_type": "U",
        "meta_norad_cat_id": 33799,
        "meta_element_set_no": 999,
        "meta_rev_at_epoch": 88767,
        "meta_bstar": 0.0017206,
        "meta_mean_motion_dot": 0.00012918,
        "meta_mean_motion_ddot": 0,
        "tle_line1": "1 33799U 93036AQ  25343.76515882  .00012918  00000+0  17206-2 0  9999",
        "tle_line2": "2 33799  74.0320  87.6439 0023693 159.3420   1.1626 14.79505613887676"
      },
      "geometry": {
        "type": "Point",
        "coordinates": [
          84.15280409772633,
          -9.078702094506841
        ]
      }
    }
  ]
}